[Satellite]
VERSION=1.1
NAME=GORIZONT 11 [-]
NICKNAME=GORIZONT 11 [-]
TLE1=1 15484U 85007A   15053.95961872  .00000047  00000-0  00000+0 0  9993
TLE2=2 15484  14.6021 353.7365 0003016 137.2665  63.3076  1.00158663111187
